{
    "links": {
        "self": "http://www.neowsapp.com/rest/v1/neo/3432687?api_key=iIulBulltgU6a56xZRHN4H3l9WmuAYTsLGpBGhQ2"
    },
    "id": "3432687",
    "neo_reference_id": "3432687",
    "name": "(2008 UT1)",
    "designation": "2008 UT1",
    "nasa_jpl_url": "http://ssd.jpl.nasa.gov/sbdb.cgi?sstr=3432687",
    "absolute_magnitude_h": 22.3,
    "estimated_diameter": {
        "kilometers": {
            "estimated_diameter_min": 0.0921626549,
            "estimated_diameter_max": 0.2060819612
        },
        "meters": {
            "estimated_diameter_min": 92.1626548503,
            "estimated_diameter_max": 206.0819612321
        },
        "miles": {
            "estimated_diameter_min": 0.057267201,
            "estimated_diameter_max": 0.1280533543
        },
        "feet": {
            "estimated_diameter_min": 302.370924539,
            "estimated_diameter_max": 676.1219416887
        }
    },
    "is_potentially_hazardous_asteroid": false,
    "close_approach_data": [
        {
            "close_approach_date": "2008-10-24",
            "close_approach_date_full": "2008-Oct-24 00:01",
            "epoch_date_close_approach": 1224806460000,
            "relative_velocity": {
                "kilometers_per_second": "24.9201992682",
                "kilometers_per_hour": "89712.7173654941",
                "miles_per_hour": "55743.9937430205"
            },
            "miss_distance": {
                "astronomical": "0.0906320978",
                "lunar": "35.2558860442",
                "kilometers": "13558368.784511686",
                "miles": "8424779.7004698268"
            },
            "orbiting_body": "Earth"
        }
    ],
    "orbital_data": {
        "orbit_id": "11",
        "orbit_determination_date": "2017-04-06 09:02:30",
        "first_observation_date": "2008-10-22",
        "last_observation_date": "2008-10-30",
        "data_arc_in_days": 8,
        "observations_used": 53,
        "orbit_uncertainty": "9",
        "minimum_orbit_intersection": ".0803243",
        "jupiter_tisserand_invariant": "3.916",
        "epoch_osculation": "2454767.5",
        "eccentricity": ".4625630203516774",
        "semi_major_axis": "1.629154554037318",
        "inclination": "43.31964171892615",
        "ascending_node_longitude": "34.58141421768028",
        "orbital_period": "759.5246215931687",
        "perihelion_distance": ".8755679029021264",
        "perihelion_argument": "292.8623458450724",
        "aphelion_distance": "2.382741205172511",
        "perihelion_time": "2454711.916530983780",
        "mean_anomaly": "26.34549068846036",
        "mean_motion": ".4739806844508461",
        "equinox": "J2000",
        "orbit_class": {
            "orbit_class_type": "APO",
            "orbit_class_description": "Near-Earth asteroid orbits which cross the Earth’s orbit similar to that of 1862 Apollo",
            "orbit_class_range": "a (semi-major axis) > 1.0 AU; q (perihelion) < 1.017 AU"
        }
    },
    "is_sentry_object": false
}